[{"OBJECT_NAME":"SDA_1670","OBJECT_ID":"2025-230G","EPOCH":"2026-03-09T17:23:00.469536","MEAN_MOTION":13.84837821,"ECCENTRICITY":0.00038733,"INCLINATION":81.2981,"RA_OF_ASC_NODE":303.9295,"ARG_OF_PERICENTER":76.4422,"MEAN_ANOMALY":283.7167,"EPHEMERIS_TYPE":0,"CLASSIFICATION_TYPE":"U","NORAD_CAT_ID":65980,"ELEMENT_SET_NO":999,"REV_AT_EPOCH":2004,"BSTAR":9.0952862e-5,"MEAN_MOTION_DOT":1.14e-6,"MEAN_MOTION_DDOT":0},{"OBJECT_NAME":"COSMOS 1275 DEB","OBJECT_ID":"1981-053AC","EPOCH":"2026-03-09T23:17:57.405120","MEAN_MOTION":13.84000112,"ECCENTRICITY":0.00262105,"INCLINATION":82.9391,"RA_OF_ASC_NODE":244.8304,"ARG_OF_PERICENTER":178.5544,"MEAN_ANOMALY":346.2998,"EPHEMERIS_TYPE":0,"CLASSIFICATION_TYPE":"U","NORAD_CAT_ID":12672,"ELEMENT_SET_NO":999,"REV_AT_EPOCH":24468,"BSTAR":0.00053790442,"MEAN_MOTION_DOT":6.15e-6,"MEAN_MOTION_DDOT":0}]
